[{"OBJECT_NAME":"STARLINK-30216","OBJECT_ID":"2023-105X","EPOCH":"2025-07-26T23:47:13.621632","MEAN_MOTION":15.02537448,"ECCENTRICITY":0.0001051,"INCLINATION":43.004,"RA_OF_ASC_NODE":47.7025,"ARG_OF_PERICENTER":264.9154,"MEAN_ANOMALY":95.1568,"EPHEMERIS_TYPE":0,"CLASSIFICATION_TYPE":"U","NORAD_CAT_ID":57451,"ELEMENT_SET_NO":999,"REV_AT_EPOCH":11145,"BSTAR":8.0934e-5,"MEAN_MOTION_DOT":8.9e-6,"MEAN_MOTION_DDOT":0},{"OBJECT_NAME":"STARLINK-30165","OBJECT_ID":"2023-107A","EPOCH":"2025-07-27T03:39:33.270624","MEAN_MOTION":15.02512354,"ECCENTRICITY":0.0001396,"INCLINATION":43.007,"RA_OF_ASC_NODE":124.74,"ARG_OF_PERICENTER":261.2768,"MEAN_ANOMALY":98.7916,"EPHEMERIS_TYPE":0,"CLASSIFICATION_TYPE":"U","NORAD_CAT_ID":57457,"ELEMENT_SET_NO":999,"REV_AT_EPOCH":11117,"BSTAR":-0.00016859,"MEAN_MOTION_DOT":-2.479e-5,"MEAN_MOTION_DDOT":0},{"OBJECT_NAME":"STARLINK-30140","OBJECT_ID":"2023-107B","EPOCH":"2025-07-27T11:33:21.827232","MEAN_MOTION":15.02532974,"ECCENTRICITY":8.32e-5,"INCLINATION":43.0028,"RA_OF_ASC_NODE":122.9109,"ARG_OF_PERICENTER":258.3849,"MEAN_ANOMALY":101.69,"EPHEMERIS_TYPE":0,"CLASSIFICATION_TYPE":"U","NORAD_CAT_ID":57458,"ELEMENT_SET_NO":999,"REV_AT_EPOCH":11123,"BSTAR":5.6547e-5,"MEAN_MOTION_DOT":5.6e-6,"MEAN_MOTION_DDOT":0},{"OBJECT_NAME":"STARLINK-30185","OBJECT_ID":"2023-107C","EPOCH":"2025-07-27T11:28:34.015872","MEAN_MOTION":15.02543581,"ECCENTRICITY":0.0001127,"INCLINATION":43.0038,"RA_OF_ASC_NODE":122.8869,"ARG_OF_PERICENTER":244.4407,"MEAN_ANOMALY":115.6319,"EPHEMERIS_TYPE":0,"CLASSIFICATION_TYPE":"U","NORAD_CAT_ID":57459,"ELEMENT_SET_NO":999,"REV_AT_EPOCH":11123,"BSTAR":-2.2643e-6,"MEAN_MOTION_DOT":-2.34e-6,"MEAN_MOTION_DDOT":0},{"OBJECT_NAME":"STARLINK-30077","OBJECT_ID":"2023-107D","EPOCH":"2025-07-27T03:25:07.636800","MEAN_MOTION":15.02520213,"ECCENTRICITY":0.0001077,"INCLINATION":43.0028,"RA_OF_ASC_NODE":124.6661,"ARG_OF_PERICENTER":272.4736,"MEAN_ANOMALY":87.5983,"EPHEMERIS_TYPE":0,"CLASSIFICATION_TYPE":"U","NORAD_CAT_ID":57460,"ELEMENT_SET_NO":999,"REV_AT_EPOCH":11118,"BSTAR":6.9567e-5,"MEAN_MOTION_DOT":7.36e-6,"MEAN_MOTION_DDOT":0},{"OBJECT_NAME":"STARLINK-30229","OBJECT_ID":"2023-107E","EPOCH":"2025-07-27T19:41:35.723040","MEAN_MOTION":15.02536557,"ECCENTRICITY":9.55e-5,"INCLINATION":43.0015,"RA_OF_ASC_NODE":121.1454,"ARG_OF_PERICENTER":271.7085,"MEAN_ANOMALY":88.3648,"EPHEMERIS_TYPE":0,"CLASSIFICATION_TYPE":"U","NORAD_CAT_ID":57461,"ELEMENT_SET_NO":999,"REV_AT_EPOCH":11126,"BSTAR":3.3255e-5,"MEAN_MOTION_DOT":2.46e-6,"MEAN_MOTION_DDOT":0},{"OBJECT_NAME":"STARLINK-30088","OBJECT_ID":"2023-107F","EPOCH":"2025-07-27T11:18:58.349952","MEAN_MOTION":15.02538676,"ECCENTRICITY":9.24e-5,"INCLINATION":43.0029,"RA_OF_ASC_NODE":122.8346,"ARG_OF_PERICENTER":255.3041,"MEAN_ANOMALY":104.7699,"EPHEMERIS_TYPE":0,"CLASSIFICATION_TYPE":"U","NORAD_CAT_ID":57462,"ELEMENT_SET_NO":999,"REV_AT_EPOCH":11123,"BSTAR":9.0891e-5,"MEAN_MOTION_DOT":1.025e-5,"MEAN_MOTION_DDOT":0},{"OBJECT_NAME":"STARLINK-30091","OBJECT_ID":"2023-107G","EPOCH":"2025-07-27T04:46:28.409088","MEAN_MOTION":15.02540005,"ECCENTRICITY":9.3e-5,"INCLINATION":43.0029,"RA_OF_ASC_NODE":124.2287,"ARG_OF_PERICENTER":265.3091,"MEAN_ANOMALY":94.7645,"EPHEMERIS_TYPE":0,"CLASSIFICATION_TYPE":"U","NORAD_CAT_ID":57463,"ELEMENT_SET_NO":999,"REV_AT_EPOCH":11119,"BSTAR":8.4135e-5,"MEAN_MOTION_DOT":9.33e-6,"MEAN_MOTION_DDOT":0},{"OBJECT_NAME":"STARLINK-30116","OBJECT_ID":"2023-107J","EPOCH":"2025-07-27T11:11:01.322592","MEAN_MOTION":15.0251606,"ECCENTRICITY":8.4e-5,"INCLINATION":43.0038,"RA_OF_ASC_NODE":122.7946,"ARG_OF_PERICENTER":263.2328,"MEAN_ANOMALY":96.8419,"EPHEMERIS_TYPE":0,"CLASSIFICATION_TYPE":"U","NORAD_CAT_ID":57465,"ELEMENT_SET_NO":999,"REV_AT_EPOCH":11123,"BSTAR":-5.3566e-5,"MEAN_MOTION_DOT":-9.27e-6,"MEAN_MOTION_DDOT":0},{"OBJECT_NAME":"STARLINK-30092","OBJECT_ID":"2023-107L","EPOCH":"2025-07-27T18:58:26.277888","MEAN_MOTION":15.02536632,"ECCENTRICITY":0.0001013,"INCLINATION":43.0037,"RA_OF_ASC_NODE":120.9288,"ARG_OF_PERICENTER":266.8658,"MEAN_ANOMALY":93.2068,"EPHEMERIS_TYPE":0,"CLASSIFICATION_TYPE":"U","NORAD_CAT_ID":57467,"ELEMENT_SET_NO":999,"REV_AT_EPOCH":11135,"BSTAR":0.00032022,"MEAN_MOTION_DOT":4.125e-5,"MEAN_MOTION_DDOT":0},{"OBJECT_NAME":"STARLINK-30039","OBJECT_ID":"2023-107M","EPOCH":"2025-07-27T04:32:05.388864","MEAN_MOTION":15.02535054,"ECCENTRICITY":0.0001066,"INCLINATION":43.003,"RA_OF_ASC_NODE":124.1535,"ARG_OF_PERICENTER":263.9857,"MEAN_ANOMALY":96.0864,"EPHEMERIS_TYPE":0,"CLASSIFICATION_TYPE":"U","NORAD_CAT_ID":57468,"ELEMENT_SET_NO":999,"REV_AT_EPOCH":11119,"BSTAR":9.6568e-5,"MEAN_MOTION_DOT":1.101e-5,"MEAN_MOTION_DDOT":0},{"OBJECT_NAME":"STARLINK-30171","OBJECT_ID":"2023-107N","EPOCH":"2025-07-27T04:22:29.983008","MEAN_MOTION":15.02535812,"ECCENTRICITY":9.98e-5,"INCLINATION":43.0031,"RA_OF_ASC_NODE":124.1048,"ARG_OF_PERICENTER":258.8085,"MEAN_ANOMALY":101.2645,"EPHEMERIS_TYPE":0,"CLASSIFICATION_TYPE":"U","NORAD_CAT_ID":57469,"ELEMENT_SET_NO":999,"REV_AT_EPOCH":11119,"BSTAR":5.603e-5,"MEAN_MOTION_DOT":5.53e-6,"MEAN_MOTION_DDOT":0},{"OBJECT_NAME":"STARLINK-30186","OBJECT_ID":"2023-107P","EPOCH":"2025-07-27T10:50:12.399360","MEAN_MOTION":15.02545221,"ECCENTRICITY":0.0001205,"INCLINATION":43.0027,"RA_OF_ASC_NODE":122.6835,"ARG_OF_PERICENTER":270.103,"MEAN_ANOMALY":89.9675,"EPHEMERIS_TYPE":0,"CLASSIFICATION_TYPE":"U","NORAD_CAT_ID":57470,"ELEMENT_SET_NO":999,"REV_AT_EPOCH":11123,"BSTAR":-0.00019397,"MEAN_MOTION_DOT":-2.823e-5,"MEAN_MOTION_DDOT":0},{"OBJECT_NAME":"STARLINK-30190","OBJECT_ID":"2023-107Q","EPOCH":"2025-07-27T09:23:01.580064","MEAN_MOTION":15.2817915,"ECCENTRICITY":0.0025679,"INCLINATION":42.9912,"RA_OF_ASC_NODE":100.9853,"ARG_OF_PERICENTER":210.7788,"MEAN_ANOMALY":149.1558,"EPHEMERIS_TYPE":0,"CLASSIFICATION_TYPE":"U","NORAD_CAT_ID":57471,"ELEMENT_SET_NO":999,"REV_AT_EPOCH":11148,"BSTAR":0.0023308,"MEAN_MOTION_DOT":0.00066273,"MEAN_MOTION_DDOT":0},{"OBJECT_NAME":"STARLINK-30204","OBJECT_ID":"2023-107R","EPOCH":"2025-07-27T10:40:37.316640","MEAN_MOTION":15.02554988,"ECCENTRICITY":0.0001561,"INCLINATION":43.0031,"RA_OF_ASC_NODE":122.6331,"ARG_OF_PERICENTER":277.2561,"MEAN_ANOMALY":82.8104,"EPHEMERIS_TYPE":0,"CLASSIFICATION_TYPE":"U","NORAD_CAT_ID":57472,"ELEMENT_SET_NO":999,"REV_AT_EPOCH":11123,"BSTAR":-0.00048034,"MEAN_MOTION_DOT":-6.689e-5,"MEAN_MOTION_DDOT":0},{"OBJECT_NAME":"STARLINK-30187","OBJECT_ID":"2023-107S","EPOCH":"2025-07-27T04:12:54.573696","MEAN_MOTION":15.02533489,"ECCENTRICITY":0.0001031,"INCLINATION":43.0007,"RA_OF_ASC_NODE":124.0457,"ARG_OF_PERICENTER":268.0374,"MEAN_ANOMALY":92.035,"EPHEMERIS_TYPE":0,"CLASSIFICATION_TYPE":"U","NORAD_CAT_ID":57473,"ELEMENT_SET_NO":999,"REV_AT_EPOCH":11119,"BSTAR":-0.00013614,"MEAN_MOTION_DOT":-2.042e-5,"MEAN_MOTION_DDOT":0},{"OBJECT_NAME":"STARLINK-30110","OBJECT_ID":"2023-107T","EPOCH":"2025-07-27T18:01:34.726368","MEAN_MOTION":15.22680315,"ECCENTRICITY":0.0018293,"INCLINATION":43.0017,"RA_OF_ASC_NODE":95.2299,"ARG_OF_PERICENTER":207.9917,"MEAN_ANOMALY":151.995,"EPHEMERIS_TYPE":0,"CLASSIFICATION_TYPE":"U","NORAD_CAT_ID":57474,"ELEMENT_SET_NO":999,"REV_AT_EPOCH":11147,"BSTAR":0.0014546,"MEAN_MOTION_DOT":0.00034612,"MEAN_MOTION_DDOT":0}]
