STARLINK-30216          
1 57451U 23105X   25207.99112988  .00000890  00000+0  80934-4 0  9990
2 57451  43.0040  47.7025 0001051 264.9154  95.1568 15.02537448111453
STARLINK-30165          
1 57457U 23107A   25208.15246841 -.00002479  00000+0 -16859-3 0  9994
2 57457  43.0070 124.7400 0001396 261.2768  98.7916 15.02512354111172
STARLINK-30140          
1 57458U 23107B   25208.48150263  .00000560  00000+0  56547-4 0  9999
2 57458  43.0028 122.9109 0000832 258.3849 101.6900 15.02532974111237
STARLINK-30185          
1 57459U 23107C   25208.47817148 -.00000234  00000+0 -22643-5 0  9992
2 57459  43.0038 122.8869 0001127 244.4407 115.6319 15.02543581111230
STARLINK-30077          
1 57460U 23107D   25208.14244950  .00000736  00000+0  69567-4 0  9993
2 57460  43.0028 124.6661 0001077 272.4736  87.5983 15.02520213111186
STARLINK-30229          
1 57461U 23107E   25208.82055235  .00000246  00000+0  33255-4 0  9996
2 57461  43.0015 121.1454 0000955 271.7085  88.3648 15.02536557111262
STARLINK-30088          
1 57462U 23107F   25208.47150868  .00001025  00000+0  90891-4 0  9991
2 57462  43.0029 122.8346 0000924 255.3041 104.7699 15.02538676111232
STARLINK-30091          
1 57463U 23107G   25208.19893992  .00000933  00000+0  84135-4 0  9994
2 57463  43.0029 124.2287 0000930 265.3091  94.7645 15.02540005111199
STARLINK-30116          
1 57465U 23107J   25208.46598753 -.00000927  00000+0 -53566-4 0  9992
2 57465  43.0038 122.7946 0000840 263.2328  96.8419 15.02516060111237
STARLINK-30092          
1 57467U 23107L   25208.79058192  .00004125  00000+0  32022-3 0  9993
2 57467  43.0037 120.9288 0001013 266.8658  93.2068 15.02536632111356
STARLINK-30039          
1 57468U 23107M   25208.18895126  .00001101  00000+0  96568-4 0  9990
2 57468  43.0030 124.1535 0001066 263.9857  96.0864 15.02535054111192
STARLINK-30171          
1 57469U 23107N   25208.18229147  .00000553  00000+0  56030-4 0  9995
2 57469  43.0031 124.1048 0000998 258.8085 101.2645 15.02535812111190
STARLINK-30186          
1 57470U 23107P   25208.45153240 -.00002823  00000+0 -19397-3 0  9995
2 57470  43.0027 122.6835 0001205 270.1030  89.9675 15.02545221111238
STARLINK-30190          
1 57471U 23107Q   25208.39099051  .00066273  00000+0  23308-2 0  9991
2 57471  42.9912 100.9853 0025679 210.7788 149.1558 15.28179150111488
STARLINK-30204          
1 57472U 23107R   25208.44487635 -.00006689  00000+0 -48034-3 0  9998
2 57472  43.0031 122.6331 0001561 277.2561  82.8104 15.02554988111237
STARLINK-30187          
1 57473U 23107S   25208.17563164 -.00002042  00000+0 -13614-3 0  9996
2 57473  43.0007 124.0457 0001031 268.0374  92.0350 15.02533489111192
STARLINK-30110          
1 57474U 23107T   25208.75109637  .00034612  00000+0  14546-2 0  9992
2 57474  43.0017  95.2299 0018293 207.9917 151.9950 15.22680315111475
